[{"OBJECT_NAME":"STARLINK-5211","OBJECT_ID":"2022-136AM","EPOCH":"2026-03-09T21:23:32.092224","MEAN_MOTION":15.08826312,"ECCENTRICITY":0.0001208,"INCLINATION":53.2176,"RA_OF_ASC_NODE":318.3215,"ARG_OF_PERICENTER":76.9291,"MEAN_ANOMALY":283.1836,"EPHEMERIS_TYPE":0,"CLASSIFICATION_TYPE":"U","NORAD_CAT_ID":54086,"ELEMENT_SET_NO":999,"REV_AT_EPOCH":18722,"BSTAR":-7.5989989e-5,"MEAN_MOTION_DOT":-1.497e-5,"MEAN_MOTION_DDOT":0},{"OBJECT_NAME":"CZ-2D DEB","OBJECT_ID":"2010-027G","EPOCH":"2026-03-07T07:54:25.300800","MEAN_MOTION":15.18267572,"ECCENTRICITY":0.0071051,"INCLINATION":97.484,"RA_OF_ASC_NODE":105.3106,"ARG_OF_PERICENTER":258.5099,"MEAN_ANOMALY":100.8151,"EPHEMERIS_TYPE":0,"CLASSIFICATION_TYPE":"U","NORAD_CAT_ID":38302,"ELEMENT_SET_NO":999,"REV_AT_EPOCH":83107,"BSTAR":0.0021438,"MEAN_MOTION_DOT":0.00047105,"MEAN_MOTION_DDOT":0}]
